NORAD_CAT_ID,OBJECT_NAME,OBJECT_TYPE,EPOCH,MEAN_MOTION,ECCENTRICITY,INCLINATION,RA_OF_ASC_NODE,ARG_OF_PERICENTER,MEAN_ANOMALY,BSTAR,MEAN_MOTION_DOT,MEAN_MOTION_DDOT,TLE_LINE0,TLE_LINE1,TLE_LINE2,SEMIMAJOR_AXIS,PERIOD,APOGEE,PERIGEE,DECAYED
52378.0,STARLINK-3806,PAYLOAD,2023-03-24 04:04:30,15.08918732,9.27e-05,53.2168,4.2523,59.9411,300.1673,0.0070142,0.00113389,0.0,0 STARLINK-3806,1 52378U 22045AZ  23083.16979790  .00113389  00000-0  70142-2 0  9993,2 52378  53.2168   4.2523 0000927  59.9411 300.1673 15.08918732 52657,6917.64,95.433,540.146,538.863,0.0
52378.0,STARLINK-3806,PAYLOAD,2023-03-25 05:30:40,15.08877536,0.0001087,53.2163,359.495,73.8717,286.2395,0.0017765,0.00028127,0.0,0 STARLINK-3806,1 52378U 22045AZ  23084.22962992  .00028127  00000-0  17765-2 0  9994,2 52378  53.2163 359.4950 0001087  73.8717 286.2395 15.08877536 52812,6917.766,95.435,540.383,538.879,0.0
52378.0,STARLINK-3806,PAYLOAD,2023-03-25 21:24:32,15.08830538,0.0001756,53.218,356.5199,116.9064,243.2108,0.0010916,0.00017123,0.0,0 STARLINK-3806,1 52378U 22045AZ  23084.89203928  .00017123  00000-0  10916-2 0  9999,2 52378  53.2180 356.5199 0001756 116.9064 243.2108 15.08830538 52918,6917.909,95.438,540.989,538.56,0.0
52378.0,STARLINK-3806,PAYLOAD,2023-03-26 22:50:43,15.08838,0.0001358,53.2175,351.7608,94.4083,265.7065,0.00057715,8.909e-05,0.0,0 STARLINK-3806,1 52378U 22045AZ  23085.95188709  .00008909  00000-0  57715-3 0  9997,2 52378  53.2175 351.7608 0001358  94.4083 265.7065 15.08838000 53074,6917.887,95.438,540.691,538.812,0.0
52378.0,STARLINK-3806,PAYLOAD,2023-03-27 03:36:52,15.08849663,0.0001254,53.2168,350.8708,78.954,281.1593,0.0016819,0.00026588,0.0,0 STARLINK-3806,1 52378U 22045AZ  23086.15060737  .00026588  00000-0  16819-2 0  9992,2 52378  53.2168 350.8708 0001254  78.9540 281.1593 15.08849663 53106,6917.851,95.437,540.583,538.848,0.0
52378.0,STARLINK-3806,PAYLOAD,2023-03-27 21:06:06,15.08851566,0.0001228,53.2167,347.5972,75.3408,284.772,0.00067505,0.00010475,0.0,0 STARLINK-3806,1 52378U 22045AZ  23086.87924368  .00010475  00000-0  67505-3 0  9997,2 52378  53.2167 347.5972 0001228  75.3408 284.7720 15.08851566 53214,6917.845,95.437,540.56,538.861,0.0
52378.0,STARLINK-3806,PAYLOAD,2023-03-28 00:16:52,15.08857547,9.92e-05,53.2174,347.0062,82.5978,277.5127,0.00057142,8.822e-05,0.0,0 STARLINK-3806,1 52378U 22045AZ  23087.01171937  .00008822  00000-0  57142-3 0  9999,2 52378  53.2174 347.0062 0000992  82.5978 277.5127 15.08857547 53234,6917.827,95.436,540.378,539.006,0.0
52378.0,STARLINK-3806,PAYLOAD,2023-03-28 16:10:43,15.08853043,0.0001169,53.2171,344.0303,74.9909,285.1213,0.00032338,4.864e-05,0.0,0 STARLINK-3806,1 52378U 22045AZ  23087.67411833  .00004864  00000-0  32338-3 0  9995,2 52378  53.2171 344.0303 0001169  74.9909 285.1213 15.08853043 53331,6917.841,95.437,540.514,538.897,0.0
52378.0,STARLINK-3806,PAYLOAD,2023-03-28 20:56:53,15.08848734,0.0001108,53.2168,343.1371,84.1278,275.984,0.00016974,2.415e-05,0.0,0 STARLINK-3806,1 52378U 22045AZ  23087.87283796  .00002415  00000-0  16974-3 0  9990,2 52378  53.2168 343.1371 0001108  84.1278 275.9840 15.08848734 53364,6917.854,95.437,540.485,538.952,0.0
52378.0,STARLINK-3806,PAYLOAD,2023-03-29 00:07:39,15.08851195,0.0001134,53.2173,342.5435,78.2139,281.898,0.0001322,1.817e-05,0.0,0 STARLINK-3806,1 52378U 22045AZ  23088.00531660  .00001817  00000-0  13220-3 0  9998,2 52378  53.2173 342.5435 0001134  78.2139 281.8980 15.08851195 53381,6917.846,95.437,540.496,538.927,0.0
52378.0,STARLINK-3806,PAYLOAD,2023-03-29 20:47:40,15.08843834,0.0001237,53.2171,338.68,97.1981,262.9152,-2.6068e-05,-7.03e-06,0.0,0 STARLINK-3806,1 52378U 22045AZ  23088.86643822 -.00000703  00000-0 -26068-4 0  9996,2 52378  53.2171 338.6800 0001237  97.1981 262.9152 15.08843834 53517,6917.869,95.437,540.589,538.878,0.0
52378.0,STARLINK-3806,PAYLOAD,2023-03-30 03:09:12,15.08854498,0.0001076,53.217,337.4881,103.0505,257.0607,0.00041856,6.382e-05,0.0,0 STARLINK-3806,1 52378U 22045AZ  23089.13139456  .00006382  00000-0  41856-3 0  9998,2 52378  53.2170 337.4881 0001076 103.0505 257.0607 15.08854498 53554,6917.836,95.437,540.445,538.957,0.0
52378.0,STARLINK-3806,PAYLOAD,2023-03-31 03:00:00,15.08850361,0.0001155,53.2168,333.0279,83.2185,276.8938,0.00083883,0.00013091,0.0,0 STARLINK-3806,1 52378U 22045AZ  23090.12500459  .00013091  00000-0  83883-3 0  9995,2 52378  53.2168 333.0279 0001155  83.2185 276.8938 15.08850361 53703,6917.849,95.437,540.513,538.915,0.0
52378.0,STARLINK-3806,PAYLOAD,2023-03-31 22:04:38,15.08833716,0.0001353,53.2168,329.4589,85.3208,274.7939,0.00042028,6.406e-05,0.0,0 STARLINK-3806,1 52378U 22045AZ  23090.91989196  .00006406  00000-0  42028-3 0  9999,2 52378  53.2168 329.4589 0001353  85.3208 274.7939 15.08833716 53821,6917.9,95.438,540.701,538.829,0.0
52378.0,STARLINK-3806,PAYLOAD,2023-04-01 01:15:24,15.088378,0.0001343,53.2169,328.8642,79.9352,280.1792,0.00061324,9.485e-05,0.0,0 STARLINK-3806,1 52378U 22045AZ  23091.05237261  .00009485  00000-0  61324-3 0  9994,2 52378  53.2169 328.8642 0001343  79.9352 280.1792 15.08837800 53841,6917.887,95.438,540.681,538.823,0.0
52378.0,STARLINK-3806,PAYLOAD,2023-04-01 21:55:25,15.08848401,0.0001466,53.2154,325.0029,57.731,302.3824,0.00054775,8.442e-05,0.0,0 STARLINK-3806,1 52378U 22045AZ  23091.91349351  .00008442  00000-0  54775-3 0  9997,2 52378  53.2154 325.0029 0001466  57.7310 302.3824 15.08848401 53973,6917.855,95.437,540.734,538.706,0.0
52378.0,STARLINK-3806,PAYLOAD,2023-04-02 15:24:40,15.08851277,0.0001199,53.2157,321.7325,47.1997,312.9096,0.00041069,6.256e-05,0.0,0 STARLINK-3806,1 52378U 22045AZ  23092.64213072  .00006256  00000-0  41069-3 0  9991,2 52378  53.2157 321.7325 0001199  47.1997 312.9096 15.08851277 54081,6917.846,95.437,540.54,538.881,0.0
52378.0,STARLINK-3806,PAYLOAD,2023-04-02 21:46:12,15.08854945,0.000116,53.2168,320.5413,64.2632,295.848,0.00036037,5.454e-05,0.0,0 STARLINK-3806,1 52378U 22045AZ  23092.90708743  .00005454  00000-0  36037-3 0  9992,2 52378  53.2168 320.5413 0001160  64.2632 295.8480 15.08854945 54128,6917.835,95.437,540.502,538.897,0.0
52378.0,STARLINK-3806,PAYLOAD,2023-04-03 00:56:58,15.08856736,0.0001285,53.2169,319.9455,71.434,288.6792,0.0003748,5.685e-05,0.0,0 STARLINK-3806,1 52378U 22045AZ  23093.03956630  .00005685  00000-0  37480-3 0  9996,2 52378  53.2169 319.9455 0001285  71.4340 288.6792 15.08856736 54149,6917.829,95.436,540.583,538.805,0.0
52378.0,STARLINK-3806,PAYLOAD,2023-04-03 21:36:59,15.0884245,9.2e-05,53.2167,316.081,74.4842,285.6251,6.1851e-05,6.97e-06,0.0,0 STARLINK-3806,1 52378U 22045AZ  23093.90068906  .00000697  00000-0  61851-4 0  9990,2 52378  53.2167 316.0810 0000920  74.4842 285.6251 15.08842450 54274,6917.873,95.437,540.374,539.101,0.0
52378.0,STARLINK-3806,PAYLOAD,2023-04-04 00:47:45,15.08845983,0.0001098,53.216,315.4849,78.9596,281.152,0.00015027,2.105e-05,0.0,0 STARLINK-3806,1 52378U 22045AZ  23094.03316803  .00002105  00000-0  15027-3 0  9996,2 52378  53.2160 315.4849 0001098  78.9596 281.1520 15.08845983 54290,6917.862,95.437,540.487,538.968,0.0
52378.0,STARLINK-3806,PAYLOAD,2023-04-04 21:27:46,15.08840409,0.0001067,53.2156,311.6184,78.5817,281.5295,0.00011249,1.503e-05,0.0,0 STARLINK-3806,1 52378U 22045AZ  23094.89429041  .00001503  00000-0  11249-3 0  9992,2 52378  53.2156 311.6184 0001067  78.5817 281.5295 15.08840409 54429,6917.879,95.438,540.482,539.006,0.0
52378.0,STARLINK-3806,PAYLOAD,2023-04-05 00:38:32,15.08841702,0.0001063,53.2156,311.0235,78.7513,281.3599,9.4308e-05,1.214e-05,0.0,0 STARLINK-3806,1 52378U 22045AZ  23095.02676992  .00001214  00000-0  94308-4 0  9994,2 52378  53.2156 311.0235 0001063  78.7513 281.3599 15.08841702 54445,6917.875,95.437,540.476,539.005,0.0
52378.0,STARLINK-3806,PAYLOAD,2023-04-05 21:18:34,15.08835727,9.84e-05,53.2148,307.1578,94.6646,265.4458,7.4614e-05,9e-06,0.0,0 STARLINK-3806,1 52378U 22045AZ  23095.88789548  .00000900  00000-0  74614-4 0  9999,2 52378  53.2148 307.1578 0000984  94.6646 265.4458 15.08835727 54578,6917.893,95.438,540.439,539.078,0.0
52378.0,STARLINK-3806,PAYLOAD,2023-04-06 13:12:25,15.08838049,9.6e-05,53.2146,304.1836,99.6591,260.451,0.0001042,1.371e-05,0.0,0 STARLINK-3806,1 52378U 22045AZ  23096.55029576  .00001371  00000-0  10420-3 0  9999,2 52378  53.2146 304.1836 0000960  99.6591 260.4510 15.08838049 54673,6917.886,95.438,540.415,539.087,0.0
52378.0,STARLINK-3806,PAYLOAD,2023-04-07 13:03:12,15.08843492,0.0001021,53.215,299.7233,101.7214,258.3893,0.00021969,3.211e-05,0.0,0 STARLINK-3806,1 52378U 22045AZ  23097.54389469  .00003211  00000-0  21969-3 0  9994,2 52378  53.2150 299.7233 0001021 101.7214 258.3893 15.08843492 54829,6917.87,95.437,540.441,539.028,0.0
52378.0,STARLINK-3806,PAYLOAD,2023-04-07 14:38:35,15.08845668,0.0001046,53.2151,299.4263,99.8609,260.2501,0.00017863,2.557e-05,0.0,0 STARLINK-3806,1 52378U 22045AZ  23097.61013360  .00002557  00000-0  17863-3 0  9996,2 52378  53.2151 299.4263 0001046  99.8609 260.2501 15.08845668 54838,6917.863,95.437,540.452,539.004,0.0
52378.0,STARLINK-3806,PAYLOAD,2023-04-08 12:53:59,15.08840445,0.0001603,53.2152,295.2647,83.2134,276.9041,4.5487e-05,4.36e-06,0.0,0 STARLINK-3806,1 52378U 22045AZ  23098.53749676  .00000436  00000-0  45487-4 0  9992,2 52378  53.2152 295.2647 0001603  83.2134 276.9041 15.08840445 54974,6917.879,95.438,540.853,538.635,0.0
52378.0,STARLINK-3806,PAYLOAD,2023-04-09 12:44:47,15.08836011,0.0001138,53.2152,290.8032,89.7765,270.3357,6.8785e-05,8.07e-06,0.0,0 STARLINK-3806,1 52378U 22045AZ  23099.53109973  .00000807  00000-0  68785-4 0  9991,2 52378  53.2152 290.8032 0001138  89.7765 270.3357 15.08836011 55127,6917.893,95.438,540.545,538.97,0.0
52378.0,STARLINK-3806,PAYLOAD,2023-04-09 20:41:43,15.08832638,0.0001785,53.2156,289.3162,102.5923,257.5269,0.00029913,4.475e-05,0.0,0 STARLINK-3806,1 52378U 22045AZ  23099.86230362  .00004475  00000-0  29913-3 0  9998,2 52378  53.2156 289.3162 0001785 102.5923 257.5269 15.08832638 55171,6917.903,95.438,541.003,538.533,0.0
